ONEWEB-0461             
1 51649U 22012AD  25282.10818603  .00000009  00000+0 -90096-5 0  9996
2 51649  87.9095  55.7725 0001833  95.6816 264.4524 13.17649302180828
ONEWEB-0463             
1 51650U 22012AE  25281.40620166 -.00000060  00000+0 -18739-3 0  9995
2 51650  87.9076  55.9677 0001623  94.8118 265.3199 13.17649419180513
ONEWEB-0464             
1 51651U 22012AF  25282.19852819  .00000024  00000+0  32291-4 0  9993
2 51651  87.8750  86.3293 0001481 101.1942 258.9352 13.10377456176452
ONEWEB-0468             
1 51652U 22012AG  25282.20517589  .00000421  00000+0  11706-2 0  9995
2 51652  87.8750  86.3202 0001549  95.3685 264.7619 13.10376696176430
ONEWEB-0473             
1 51653U 22012AH  25282.19022402 -.00000428  00000+0 -12616-2 0  9999
2 51653  87.8753  86.3269 0001463  89.0617 271.0678 13.10375764176438
ONEWEB-0474             
1 51654U 22012AJ  25282.18191571 -.00000607  00000+0 -17761-2 0  9998
2 51654  87.8749  86.2900 0001290  96.6964 263.4310 13.10371965176428
ONEWEB-0475             
1 51655U 22012AK  25282.32924588  .00000117  00000+0  26911-3 0  9999
2 51655  87.9089  55.7684 0000882 100.8936 259.2295 13.17650434180653
ONEWEB-0490             
1 54113U 22138A   25282.25681094  .00000026  00000+0  31695-4 0  9999
2 54113  87.9282 354.8659 0001793 105.8439 254.2891 13.19725792143737
